{
  "type": "FeatureCollection",
  "features": [
    {
      "type": "Feature",
      "properties": {
        "norad_id": 29954,
        "name": "FENGYUN 1C DEB",
        "group": "fengyun-1c-debris",
        "lat": 55.21109152985475,
        "lon": -2.3948355468994236,
        "alt_km": 796.8954067912618,
        "timestamp": "2025-12-02T06:27:53.286304+00:00",
        "meta_object_name": "FENGYUN 1C DEB",
        "meta_object_id": "1999-025KC",
        "meta_epoch": "2025-12-01T15:07:57.910368",
        "meta_mean_motion": 14.3414429,
        "meta_eccentricity": 0.00741929,
        "meta_inclination": 100.1522,
        "meta_ra_of_asc_node": 11.8027,
        "meta_arg_of_pericenter": 300.7568,
        "meta_mean_anomaly": 58.6319,
        "meta_ephemeris_type": 0,
        "meta_classification_type": "U",
        "meta_norad_cat_id": 29954,
        "meta_element_set_no": 999,
        "meta_rev_at_epoch": 98028,
        "meta_bstar": 0.001022818,
        "meta_mean_motion_dot": 2.896e-05,
        "meta_mean_motion_ddot": 0,
        "tle_line1": "1 29954U 99025KC  25335.63053137  .00002896  00000+0  10228-2 0  9999",
        "tle_line2": "2 29954 100.1522  11.8027 0074192 300.7568  58.6319 14.34144290980284"
      },
      "geometry": {
        "type": "Point",
        "coordinates": [
          -2.3948355468994236,
          55.21109152985475
        ]
      }
    },
    {
      "type": "Feature",
      "properties": {
        "norad_id": 29955,
        "name": "FENGYUN 1C DEB",
        "group": "fengyun-1c-debris",
        "lat": -0.37624490282265377,
        "lon": 56.17115378014102,
        "alt_km": 767.0064249470688,
        "timestamp": "2025-12-02T06:27:53.286314+00:00",
        "meta_object_name": "FENGYUN 1C DEB",
        "meta_object_id": "1999-025KD",
        "meta_epoch": "2025-12-01T04:03:39.402720",
        "meta_mean_motion": 14.38071201,
        "meta_eccentricity": 0.0006916,
        "meta_inclination": 99.275,
        "meta_ra_of_asc_node": 54.9229,
        "meta_arg_of_pericenter": 282.2856,
        "meta_mean_anomaly": 144.9662,
        "meta_ephemeris_type": 0,
        "meta_classification_type": "U",
        "meta_norad_cat_id": 29955,
        "meta_element_set_no": 999,
        "meta_rev_at_epoch": 97895,
        "meta_bstar": 0.0016155751,
        "meta_mean_motion_dot": 4.847e-05,
        "meta_mean_motion_ddot": 0,
        "tle_line1": "1 29955U 99025KD  25335.16920605  .00004847  00000+0  16156-2 0  9995",
        "tle_line2": "2 29955  99.2750  54.9229 0006916 282.2856 144.9662 14.38071201978957"
      },
      "geometry": {
        "type": "Point",
        "coordinates": [
          56.17115378014102,
          -0.37624490282265377
        ]
      }
    },
    {
      "type": "Feature",
      "properties": {
        "norad_id": 29956,
        "name": "FENGYUN 1C DEB",
        "group": "fengyun-1c-debris",
        "lat": -8.619535010507404,
        "lon": -175.91659620574143,
        "alt_km": 907.302251188381,
        "timestamp": "2025-12-02T06:27:53.286324+00:00",
        "meta_object_name": "FENGYUN 1C DEB",
        "meta_object_id": "1999-025KE",
        "meta_epoch": "2025-12-01T20:08:52.755936",
        "meta_mean_motion": 14.0616631,
        "meta_eccentricity": 0.0054164,
        "meta_inclination": 98.7929,
        "meta_ra_of_asc_node": 5.0104,
        "meta_arg_of_pericenter": 47.8963,
        "meta_mean_anomaly": 125.4593,
        "meta_ephemeris_type": 0,
        "meta_classification_type": "U",
        "meta_norad_cat_id": 29956,
        "meta_element_set_no": 999,
        "meta_rev_at_epoch": 96896,
        "meta_bstar": 0.00019284,
        "meta_mean_motion_dot": 2.79e-06,
        "meta_mean_motion_ddot": 0,
        "tle_line1": "1 29956U 99025KE  25335.83949949  .00000279  00000+0  19284-3 0  9993",
        "tle_line2": "2 29956  98.7929   5.0104 0054164  47.8963 125.4593 14.06166310968969"
      },
      "geometry": {
        "type": "Point",
        "coordinates": [
          -175.91659620574143,
          -8.619535010507404
        ]
      }
    },
    {
      "type": "Feature",
      "properties": {
        "norad_id": 29957,
        "name": "FENGYUN 1C DEB",
        "group": "fengyun-1c-debris",
        "lat": 1.1548868549461797,
        "lon": 102.43078373627458,
        "alt_km": 751.9643864979416,
        "timestamp": "2025-12-02T06:27:53.286334+00:00",
        "meta_object_name": "FENGYUN 1C DEB",
        "meta_object_id": "1999-025KF",
        "meta_epoch": "2025-12-01T07:25:11.900928",
        "meta_mean_motion": 14.50421286,
        "meta_eccentricity": 0.00393469,
        "meta_inclination": 98.9211,
        "meta_ra_of_asc_node": 101.5955,
        "meta_arg_of_pericenter": 210.3593,
        "meta_mean_anomaly": 179.8281,
        "meta_ephemeris_type": 0,
        "meta_classification_type": "U",
        "meta_norad_cat_id": 29957,
        "meta_element_set_no": 999,
        "meta_rev_at_epoch": 97326,
        "meta_bstar": 0.0062713208,
        "meta_mean_motion_dot": 0.00024785,
        "meta_mean_motion_ddot": 0,
        "tle_line1": "1 29957U 99025KF  25335.30916552  .00024785  00000+0  62713-2 0  9992",
        "tle_line2": "2 29957  98.9211 101.5955 0039346 210.3593 179.8281 14.50421286973264"
      },
      "geometry": {
        "type": "Point",
        "coordinates": [
          102.43078373627458,
          1.1548868549461797
        ]
      }
    },
    {
      "type": "Feature",
      "properties": {
        "norad_id": 29958,
        "name": "FENGYUN 1C DEB",
        "group": "fengyun-1c-debris",
        "lat": -22.9369803298556,
        "lon": 167.24181057975116,
        "alt_km": 886.9130572488084,
        "timestamp": "2025-12-02T06:27:53.286344+00:00",
        "meta_object_name": "FENGYUN 1C DEB",
        "meta_object_id": "1999-025KG",
        "meta_epoch": "2025-12-01T12:31:45.565824",
        "meta_mean_motion": 14.14432478,
        "meta_eccentricity": 0.00549334,
        "meta_inclination": 98.6691,
        "meta_ra_of_asc_node": 350.2182,
        "meta_arg_of_pericenter": 5.4404,
        "meta_mean_anomaly": 354.7355,
        "meta_ephemeris_type": 0,
        "meta_classification_type": "U",
        "meta_norad_cat_id": 29958,
        "meta_element_set_no": 999,
        "meta_rev_at_epoch": 97292,
        "meta_bstar": 0.0003611329,
        "meta_mean_motion_dot": 6.59e-06,
        "meta_mean_motion_ddot": 0,
        "tle_line1": "1 29958U 99025KG  25335.52205516  .00000659  00000+0  36113-3 0  9998",
        "tle_line2": "2 29958  98.6691 350.2182 0054933   5.4404 354.7355 14.14432478972925"
      },
      "geometry": {
        "type": "Point",
        "coordinates": [
          167.24181057975116,
          -22.9369803298556
        ]
      }
    },
    {
      "type": "Feature",
      "properties": {
        "norad_id": 29959,
        "name": "FENGYUN 1C DEB",
        "group": "fengyun-1c-debris",
        "lat": 41.436260989268995,
        "lon": -164.91179630514654,
        "alt_km": 893.1316102954352,
        "timestamp": "2025-12-02T06:27:53.286354+00:00",
        "meta_object_name": "FENGYUN 1C DEB",
        "meta_object_id": "1999-025KH",
        "meta_epoch": "2025-12-01T13:27:36.475776",
        "meta_mean_motion": 14.06005401,
        "meta_eccentricity": 0.00421279,
        "meta_inclination": 98.8095,
        "meta_ra_of_asc_node": 6.5311,
        "meta_arg_of_pericenter": 359.5875,
        "meta_mean_anomaly": 153.668,
        "meta_ephemeris_type": 0,
        "meta_classification_type": "U",
        "meta_norad_cat_id": 29959,
        "meta_element_set_no": 999,
        "meta_rev_at_epoch": 96783,
        "meta_bstar": 0.00023674983,
        "meta_mean_motion_dot": 3.48e-06,
        "meta_mean_motion_ddot": 0,
        "tle_line1": "1 29959U 99025KH  25335.56083884  .00000348  00000+0  23675-3 0  9999",
        "tle_line2": "2 29959  98.8095   6.5311 0042127 359.5875 153.6680 14.06005401967832"
      },
      "geometry": {
        "type": "Point",
        "coordinates": [
          -164.91179630514654,
          41.436260989268995
        ]
      }
    },
    {
      "type": "Feature",
      "properties": {
        "norad_id": 29960,
        "name": "FENGYUN 1C DEB",
        "group": "fengyun-1c-debris",
        "lat": -1.7342847688754404,
        "lon": 141.91386931154074,
        "alt_km": 887.138008428662,
        "timestamp": "2025-12-02T06:27:53.286364+00:00",
        "meta_object_name": "FENGYUN 1C DEB",
        "meta_object_id": "1999-025KJ",
        "meta_epoch": "2025-12-01T11:33:42.325632",
        "meta_mean_motion": 14.1636568,
        "meta_eccentricity": 0.00914073,
        "meta_inclination": 98.6136,
        "meta_ra_of_asc_node": 321.4147,
        "meta_arg_of_pericenter": 318.8902,
        "meta_mean_anomaly": 169.7066,
        "meta_ephemeris_type": 0,
        "meta_classification_type": "U",
        "meta_norad_cat_id": 29960,
        "meta_element_set_no": 999,
        "meta_rev_at_epoch": 97295,
        "meta_bstar": 0.00057399806,
        "meta_mean_motion_dot": 1.144e-05,
        "meta_mean_motion_ddot": 0,
        "tle_line1": "1 29960U 99025KJ  25335.48173988  .00001144  00000+0  57400-3 0  9995",
        "tle_line2": "2 29960  98.6136 321.4147 0091407 318.8902 169.7066 14.16365680972952"
      },
      "geometry": {
        "type": "Point",
        "coordinates": [
          141.91386931154074,
          -1.7342847688754404
        ]
      }
    }
  ]
}